OBJECT_NAME,OBJECT_ID,EPOCH,MEAN_MOTION,ECCENTRICITY,INCLINATION,RA_OF_ASC_NODE,ARG_OF_PERICENTER,MEAN_ANOMALY,EPHEMERIS_TYPE,CLASSIFICATION_TYPE,NORAD_CAT_ID,ELEMENT_SET_NO,REV_AT_EPOCH,BSTAR,MEAN_MOTION_DOT,MEAN_MOTION_DDOT
ONEWEB-0495,2022-138C,2026-06-06T16:12:01.651968,13.19725199,.0001173,87.9164,307.0662,90.7332,269.3936,0,U,54115,999,17543,.31751E-3,.14E-5,0
ONEWEB-0497,2022-138D,2026-06-06T16:30:13.381632,13.19724177,.0001767,87.9166,307.0551,97.3452,262.7881,0,U,54116,999,17542,.3776E-3,.164E-5,0
ONEWEB-0499,2022-138E,2026-06-06T16:06:21.745728,13.19726842,.0001647,87.9162,307.0680,90.9267,269.2054,0,U,54117,999,17543,.18183E-3,.86E-6,0
ONEWEB-0500,2022-138F,2026-06-06T16:09:44.719200,13.19723695,.0001885,87.9176,307.0610,99.1859,260.9487,0,U,54118,999,17544,.39881E-3,.173E-5,0
ONEWEB-0501,2022-138G,2026-06-06T16:52:56.828928,13.19720205,.0001503,87.9166,307.0546,92.6831,267.4473,0,U,54119,999,17542,.15478E-2,.633E-5,0
ONEWEB-0502,2022-138H,2026-06-06T16:32:28.845600,13.19723458,.0001674,87.9171,307.0463,89.8655,270.2669,0,U,54120,999,17544,.13091E-3,.65E-6,0
ONEWEB-0503,2022-138J,2026-06-06T16:16:34.579200,13.19723929,.0002006,87.9174,307.0542,90.3810,269.7553,0,U,54121,999,17543,.24179E-3,.11E-5,0
ONEWEB-0504,2022-138K,2026-06-06T15:58:23.306592,13.19725115,.0001704,87.9171,307.0615,90.0091,270.1237,0,U,54122,999,17544,.1655E-3,.79E-6,0
ONEWEB-0505,2022-138L,2026-06-06T15:53:51.175104,13.19725716,.0001447,87.9171,307.0633,87.6599,272.4699,0,U,54123,999,17542,.33701E-3,.148E-5,0
ONEWEB-0506,2022-138M,2026-06-06T17:06:36.211968,13.19734926,.0001768,87.9163,307.0491,86.4721,273.6614,0,U,54124,999,17542,-.61114E-2,-.2433E-4,0
ONEWEB-0507,2022-138N,2026-06-06T15:47:00.968640,13.19725007,.0001571,87.9161,307.0739,95.8484,264.2828,0,U,54125,999,17546,.98094E-4,.52E-6,0
ONEWEB-0508,2022-138P,2026-06-06T15:42:26.798112,13.19723951,.0001347,87.9162,307.0743,98.9150,261.2136,0,U,54126,999,17544,.14541E-3,.71E-6,0
ONEWEB-0509,2022-138Q,2026-06-06T09:38:29.198112,13.19743121,.00022516,87.9177,307.1105,98.0539,262.0849,0,U,54127,999,17538,.27701316E-2,.1122E-4,0
ONEWEB-0510,2022-138R,2026-06-06T14:26:38.243328,13.20773012,.0002407,87.9193,276.5457,100.2117,259.9288,0,U,54128,999,17788,.16619E-3,.81E-6,0
ONEWEB-0511,2022-138S,2026-06-06T16:50:42.726624,13.19725868,.0001849,87.9169,307.0569,87.1705,272.9640,0,U,54129,999,17545,-.33713E-5,.12E-6,0
ONEWEB-0512,2022-138T,2026-06-06T16:39:19.065024,13.19724217,.000161,87.9161,307.0641,87.6351,272.4966,0,U,54130,999,17542,.22117E-3,.101E-5,0
ONEWEB-0513,2022-138U,2026-06-06T16:53:37.497408,13.20268183,.0001545,87.9170,307.0075,64.4178,295.7115,0,U,54131,999,17533,-.12081E-3,-.36E-6,0
ONEWEB-0514,2022-138V,2026-06-06T17:02:03.791040,13.19725956,.0001959,87.9167,307.0536,96.7938,263.3418,0,U,54132,999,17544,-.27623E-3,-.98E-6,0
ONEWEB-0515,2022-138W,2026-06-06T14:07:12.804096,13.20769975,.000252,87.9223,276.5425,117.8668,242.2721,0,U,54133,999,17790,.34017E-3,.151E-5,0
ONEWEB-0516,2022-138X,2026-06-06T16:25:40.075104,13.19723869,.0001695,87.9159,307.0660,99.5227,260.6097,0,U,54134,999,17544,.15575E-3,.75E-6,0
ONEWEB-0517,2022-138Y,2026-06-06T15:56:05.974656,13.19725191,.0002046,87.9166,307.0614,89.8131,270.3236,0,U,54135,999,17544,-.35113E-3,-.128E-5,0
ONEWEB-0518,2022-138Z,2026-06-06T16:23:26.791872,13.19727480,.0001724,87.9164,307.0684,101.8166,258.3160,0,U,54136,999,17544,.36596E-3,.159E-5,0
ONEWEB-0519,2022-138AA,2026-06-06T16:59:49.077024,13.19725982,.000196,87.9173,307.0534,91.9709,268.1648,0,U,54137,999,17545,-.11221E-3,-.32E-6,0
ONEWEB-0520,2022-138AB,2026-06-06T16:00:39.667392,13.19724480,.0001543,87.9167,307.0614,94.7667,265.3642,0,U,54138,999,17543,.69899E-4,.41E-6,0
ONEWEB-0521,2022-138AC,2026-06-06T16:48:25.239168,13.19724352,.0001999,87.9175,307.0439,92.4546,267.6815,0,U,54139,999,17538,-.14185E-3,-.44E-6,0
ONEWEB-0522,2022-138AD,2026-06-06T16:18:51.075648,13.19724790,.0001721,87.9173,307.0503,94.0221,266.1109,0,U,54140,999,17542,.36666E-3,.16E-5,0
ONEWEB-0523,2022-138AE,2026-06-06T13:47:49.492032,13.20771140,.000273,87.9190,276.5551,106.2661,253.8772,0,U,54141,999,17790,.26552E-3,.121E-5,0
ONEWEB-0524,2022-138AF,2026-06-06T13:33:17.068032,13.20771189,.0002242,87.9189,276.5543,123.2092,236.9256,0,U,54142,999,17790,.24108E-3,.111E-5,0
ONEWEB-0525,2022-138AG,2026-06-06T16:46:08.389344,13.19725042,.0001432,87.9169,307.0545,97.6497,262.4799,0,U,54143,999,17544,.14487E-3,.71E-6,0
ONEWEB-0526,2022-138AH,2026-06-06T15:44:44.239776,13.19730279,.0001708,87.9170,307.0630,99.2577,260.8749,0,U,54144,999,17541,.19716E-3,.92E-6,0
ONEWEB-0529,2022-138AJ,2026-06-06T15:49:16.417056,13.19724217,.0001544,87.9161,307.0722,96.7859,263.3449,0,U,54145,999,17543,-.29874E-4,.1E-7,0
