ONEWEB-0495             
1 54115U 22138C   26157.67501912  .00000140  00000+0  31751-3 0  9998
2 54115  87.9164 307.0662 0001173  90.7332 269.3936 13.19725199175438
ONEWEB-0497             
1 54116U 22138D   26157.68765488  .00000164  00000+0  37760-3 0  9992
2 54116  87.9166 307.0551 0001767  97.3452 262.7881 13.19724177175423
ONEWEB-0499             
1 54117U 22138E   26157.67108502  .00000086  00000+0  18183-3 0  9991
2 54117  87.9162 307.0680 0001647  90.9267 269.2054 13.19726842175439
ONEWEB-0500             
1 54118U 22138F   26157.67343425  .00000173  00000+0  39881-3 0  9992
2 54118  87.9176 307.0610 0001885  99.1859 260.9487 13.19723695175442
ONEWEB-0501             
1 54119U 22138G   26157.70343552  .00000633  00000+0  15478-2 0  9994
2 54119  87.9166 307.0546 0001503  92.6831 267.4473 13.19720205175424
ONEWEB-0502             
1 54120U 22138H   26157.68922275  .00000065  00000+0  13091-3 0  9997
2 54120  87.9171 307.0463 0001674  89.8655 270.2669 13.19723458175445
ONEWEB-0503             
1 54121U 22138J   26157.67817800  .00000110  00000+0  24179-3 0  9994
2 54121  87.9174 307.0542 0002006  90.3810 269.7553 13.19723929175434
ONEWEB-0504             
1 54122U 22138K   26157.66554753  .00000079  00000+0  16550-3 0  9997
2 54122  87.9171 307.0615 0001704  90.0091 270.1237 13.19725115175440
ONEWEB-0505             
1 54123U 22138L   26157.66239786  .00000148  00000+0  33701-3 0  9998
2 54123  87.9171 307.0633 0001447  87.6599 272.4699 13.19725716175422
ONEWEB-0506             
1 54124U 22138M   26157.71291912 -.00002433  00000+0 -61114-2 0  9993
2 54124  87.9163 307.0491 0001768  86.4721 273.6614 13.19734926175429
ONEWEB-0507             
1 54125U 22138N   26157.65765010  .00000052  00000+0  98094-4 0  9994
2 54125  87.9161 307.0739 0001571  95.8484 264.2828 13.19725007175462
ONEWEB-0508             
1 54126U 22138P   26157.65447683  .00000071  00000+0  14541-3 0  9993
2 54126  87.9162 307.0743 0001347  98.9150 261.2136 13.19723951175447
ONEWEB-0509             
1 54127U 22138Q   26157.40172683  .00001122  00000+0  27701-2 0  9991
2 54127  87.9177 307.1105 0002251  98.0539 262.0849 13.19743121175388
ONEWEB-0510             
1 54128U 22138R   26157.60183152  .00000081  00000+0  16619-3 0  9997
2 54128  87.9193 276.5457 0002407 100.2117 259.9288 13.20773012177880
ONEWEB-0511             
1 54129U 22138S   26157.70188341  .00000012  00000+0 -33713-5 0  9995
2 54129  87.9169 307.0569 0001849  87.1705 272.9640 13.19725868175455
ONEWEB-0512             
1 54130U 22138T   26157.69397066  .00000101  00000+0  22117-3 0  9993
2 54130  87.9161 307.0641 0001610  87.6351 272.4966 13.19724217175428
ONEWEB-0513             
1 54131U 22138U   26157.70390622 -.00000036  00000+0 -12081-3 0  9995
2 54131  87.9170 307.0075 0001545  64.4178 295.7115 13.20268183175338
ONEWEB-0514             
1 54132U 22138V   26157.70976610 -.00000098  00000+0 -27623-3 0  9999
2 54132  87.9167 307.0536 0001959  96.7938 263.3418 13.19725956175441
ONEWEB-0515             
1 54133U 22138W   26157.58834264  .00000151  00000+0  34017-3 0  9997
2 54133  87.9223 276.5425 0002520 117.8668 242.2721 13.20769975177909
ONEWEB-0516             
1 54134U 22138X   26157.68449161  .00000075  00000+0  15575-3 0  9990
2 54134  87.9159 307.0660 0001695  99.5227 260.6097 13.19723869175445
ONEWEB-0517             
1 54135U 22138Y   26157.66395804 -.00000128  00000+0 -35113-3 0  9994
2 54135  87.9166 307.0614 0002046  89.8131 270.3236 13.19725191175443
ONEWEB-0518             
1 54136U 22138Z   26157.68294898  .00000159  00000+0  36596-3 0  9996
2 54136  87.9164 307.0684 0001724 101.8166 258.3160 13.19727480175449
ONEWEB-0519             
1 54137U 22138AA  26157.70820691 -.00000032  00000+0 -11221-3 0  9996
2 54137  87.9173 307.0534 0001960  91.9709 268.1648 13.19725982175454
ONEWEB-0520             
1 54138U 22138AB  26157.66712578  .00000041  00000+0  69899-4 0  9999
2 54138  87.9167 307.0614 0001543  94.7667 265.3642 13.19724480175431
ONEWEB-0521             
1 54139U 22138AC  26157.70029212 -.00000044  00000+0 -14185-3 0  9993
2 54139  87.9175 307.0439 0001999  92.4546 267.6815 13.19724352175381
ONEWEB-0522             
1 54140U 22138AD  26157.67975782  .00000160  00000+0  36666-3 0  9998
2 54140  87.9173 307.0503 0001721  94.0221 266.1109 13.19724790175425
ONEWEB-0523             
1 54141U 22138AE  26157.57487838  .00000121  00000+0  26552-3 0  9998
2 54141  87.9190 276.5551 0002730 106.2661 253.8772 13.20771140177900
ONEWEB-0524             
1 54142U 22138AF  26157.56478088  .00000111  00000+0  24108-3 0  9999
2 54142  87.9189 276.5543 0002242 123.2092 236.9256 13.20771189177907
ONEWEB-0525             
1 54143U 22138AG  26157.69870821  .00000071  00000+0  14487-3 0  9999
2 54143  87.9169 307.0545 0001432  97.6497 262.4799 13.19725042175449
ONEWEB-0526             
1 54144U 22138AH  26157.65606759  .00000092  00000+0  19716-3 0  9996
2 54144  87.9170 307.0630 0001708  99.2577 260.8749 13.19730279175412
ONEWEB-0529             
1 54145U 22138AJ  26157.65921779  .00000001  00000+0 -29874-4 0  9997
2 54145  87.9161 307.0722 0001544  96.7859 263.3449 13.19724217175430
